0 ARIANE 1 DEB
1 24754U 79104C   13281.91756831  .00003206  00000-0  73856-2 0  8304
2 24754 017.5371 281.1900 5138653 338.3760 084.6572 05.11776031294288
0 ARIANE 1 DEB
1 24754U 79104C   13287.22082296  .00003570  00000-0  81407-2 0  8328
2 24754 017.5294 275.5606 5139431 348.8413 135.5859 05.11812770294542
0 ARIANE 1 DEB
1 24754U 79104C   13289.55093887  .00003912  00000-0  89985-2 0  8334
2 24754 017.5257 273.0838 5139036 353.4380 108.9420 05.11833782294664
0 ARIANE 1 DEB
1 24754U 79104C   13290.35178258  .00003936  00000-0  90476-2 0  8344
2 24754 017.5245 272.2326 5139231 355.0194 144.5733 05.11839714294701
0 ARIANE 1 DEB
1 24754U 79104C   13290.46941021  .00003580  00000-0  79442-2 0  8347
2 24754 017.5282 272.1176 5141961 355.2594 001.2823 05.11833728294701
0 ARIANE 1 DEB
1 24754U 79104C   13291.06196983  .00003703  00000-0  84551-2 0  8358
2 24754 017.5237 271.4778 5139936 356.4245 013.1664 05.11846108294741
0 ARIANE 1 DEB
1 24754U 79104C   13293.06001397  .00004151  00000-0  94002-2 0  8365
2 24754 017.5213 269.3524 5140634 000.3725 094.8769 05.11863414294847
0 ARIANE 1 DEB
1 24754U 79104C   13294.64862317  .00004492  00000-0  10117-1 0  8370
2 24754 017.5192 267.6617 5140860 003.5121 142.2329 05.11879359294927
0 ARIANE 1 DEB
1 24754U 79104C   13295.20800562  .00004324  00000-0  96817-2 0  8384
2 24754 017.5186 267.0669 5141293 004.6184 093.0251 05.11887086294959
